NORAD_CAT_ID,OBJECT_NAME,OBJECT_TYPE,EPOCH,MEAN_MOTION,ECCENTRICITY,INCLINATION,RA_OF_ASC_NODE,ARG_OF_PERICENTER,MEAN_ANOMALY,BSTAR,MEAN_MOTION_DOT,MEAN_MOTION_DDOT,TLE_LINE0,TLE_LINE1,TLE_LINE2,SEMIMAJOR_AXIS,PERIOD,APOGEE,PERIGEE,DECAYED
49747.0,STARLINK-3247,PAYLOAD,2022-08-31 04:28:08,15.08836319,0.0001921999999999,53.2181,164.4498,56.2041,303.9134,5.043e-05,5.14e-06,0.0,0 STARLINK-3247,1 49747U 21115Z   22243.18620508  .00000514  00000-0  50430-4 0  9990,2 49747  53.2181 164.4498 0001922  56.2041 303.9134 15.08836319 41317,6917.892,95.438,541.086,538.427,0.0
49747.0,STARLINK-3247,PAYLOAD,2022-09-01 04:18:54,15.08841704,0.0002064,53.218,159.9911,55.0881,305.0305,0.00017457,2.491e-05,0.0,0 STARLINK-3247,1 49747U 21115Z   22244.17980005  .00002491  00000-0  17457-3 0  9998,2 49747  53.2180 159.9911 0002064  55.0881 305.0305 15.08841704 42578,6917.875,95.437,541.168,538.312,0.0
49747.0,STARLINK-3247,PAYLOAD,2022-09-02 02:34:19,15.08841823,0.0001911999999999,53.2183,155.8273,59.4805,300.6375,3.761e-05,3.1e-06,0.0,0 STARLINK-3247,1 49747U 21115Z   22245.10716610  .00000310  00000-0  37610-4 0  9993,2 49747  53.2183 155.8273 0001912  59.4805 300.6375 15.08841823 41605,6917.875,95.437,541.063,538.4169999999998,0.0
49747.0,STARLINK-3247,PAYLOAD,2022-09-02 18:28:10,15.08842354,0.0001858,53.2177,152.8537,71.09100000000002,289.0283,6.1737e-05,6.95e-06,0.0,0 STARLINK-3247,1 49747U 21115Z   22245.76956248  .00000695  00000-0  61737-4 0  9991,2 49747  53.2177 152.8537 0001858  71.0910 289.0283 15.08842354 41703,6917.873000000001,95.437,541.024,538.453,0.0
49747.0,STARLINK-3247,PAYLOAD,2022-09-03 04:00:29,15.08834932,0.0001844999999999,53.2181,151.0688,65.0709,295.0474,1.6420999999999994e-05,-2.7e-07,0.0,0 STARLINK-3247,1 49747U 21115Z   22246.16701066 -.00000027  00000-0  16421-4 0  9992,2 49747  53.2181 151.0688 0001845  65.0709 295.0474 15.08834932 42872,6917.896,95.438,541.0369999999998,538.485,0.0
49747.0,STARLINK-3247,PAYLOAD,2022-09-03 21:29:43,15.08847985,0.0001851,53.2179,147.7985,57.7214,302.3957,9.135e-05,1.166e-05,0.0,0 STARLINK-3247,1 49747U 21115Z   22246.89564075  .00001166  00000-0  91350-4 0  9997,2 49747  53.2179 147.7985 0001851  57.7214 302.3957 15.08847985 41876,6917.856,95.437,541.001,538.44,0.0
49747.0,STARLINK-3247,PAYLOAD,2022-09-04 10:12:48,15.08841624,0.0001701,53.2182,145.4184,57.8554,302.2603,4.7212e-05,4.63e-06,0.0,0 STARLINK-3247,1 49747U 21115Z   22247.42556403  .00000463  00000-0  47212-4 0  9990,2 49747  53.2182 145.4184 0001701  57.8554 302.2603 15.08841624 43062,6917.875,95.437,540.9169999999998,538.564,0.0
49747.0,STARLINK-3247,PAYLOAD,2022-09-04 18:09:43,15.08848769,0.000187,53.2168,143.9331,62.4036,297.7146,0.00024059,3.544e-05,0.0,0 STARLINK-3247,1 49747U 21115Z   22247.75675905  .00003544  00000-0  24059-3 0  9991,2 49747  53.2168 143.9331 0001870  62.4036 297.7146 15.08848769 42007,6917.854,95.437,541.012,538.425,0.0
49747.0,STARLINK-3247,PAYLOAD,2022-09-05 02:06:39,15.08854169,0.0002005,53.2166,142.4475,64.2789,295.841,0.00022952,3.368e-05,0.0,0 STARLINK-3247,1 49747U 21115Z   22248.08795631  .00003368  00000-0  22952-3 0  9991,2 49747  53.2166 142.4475 0002005  64.2789 295.8410 15.08854169 42053,6917.837,95.437,541.089,538.315,0.0
49747.0,STARLINK-3247,PAYLOAD,2022-09-05 18:00:30,15.08855183,0.0001646,53.2164,139.4723,56.9091,303.2059,0.00022075,3.228e-05,0.0,0 STARLINK-3247,1 49747U 21115Z   22248.75034944  .00003228  00000-0  22075-3 0  9999,2 49747  53.2164 139.4723 0001646  56.9091 303.2059 15.08855183 42158,6917.834,95.437,540.8380000000002,538.56,0.0
49747.0,STARLINK-3247,PAYLOAD,2022-09-06 01:57:26,15.0883182,0.0001825,53.216,137.9867,59.0784,301.0387,-0.00020689,-3.579e-05,0.0,0 STARLINK-3247,1 49747U 21115Z   22249.08156085 -.00003579  00000-0 -20689-3 0  9997,2 49747  53.2160 137.9867 0001825  59.0784 301.0387 15.08831820 42206,6917.905,95.438,541.033,538.508,0.0
49747.0,STARLINK-3247,PAYLOAD,2022-09-06 16:15:55,15.08828087,0.0001867,53.2168,135.3102,59.8005,300.3172,-0.0002032999999999,-3.521e-05,0.0,0 STARLINK-3247,1 49747U 21115Z   22249.67772630 -.00003521  00000-0 -20330-3 0  9992,2 49747  53.2168 135.3102 0001867  59.8005 300.3172 15.08828087 42292,6917.917,95.438,541.073,538.49,0.0
49747.0,STARLINK-3247,PAYLOAD,2022-09-07 03:23:37,15.08827253,0.0001826,53.217,133.2279,57.9328,302.1841,-0.00018146,-3.174e-05,0.0,0 STARLINK-3247,1 49747U 21115Z   22250.14141080 -.00003174  00000-0 -18146-3 0  9991,2 49747  53.2170 133.2279 0001826  57.9328 302.1841 15.08827253 43477,6917.919,95.438,541.048,538.521,0.0
49747.0,STARLINK-3247,PAYLOAD,2022-09-07 19:17:28,15.08839407,0.0001763,53.217,130.2555,53.1995,306.9159,0.00020148,2.92e-05,0.0,0 STARLINK-3247,1 49747U 21115Z   22250.80380760  .00002920  00000-0  20148-3 0  9995,2 49747  53.2170 130.2555 0001763  53.1995 306.9159 15.08839407 42465,6917.882,95.438,540.967,538.528,0.0
49747.0,STARLINK-3247,PAYLOAD,2022-09-08 09:35:57,15.08844125,0.0001729,53.2169,127.5777,56.5937,303.522,0.00039146,5.948e-05,0.0,0 STARLINK-3247,1 49747U 21115Z   22251.39996643  .00005948  00000-0  39146-3 0  9994,2 49747  53.2169 127.5777 0001729  56.5937 303.5220 15.08844125 42558,6917.868,95.437,540.929,538.5369999999998,0.0
49747.0,STARLINK-3247,PAYLOAD,2022-09-08 19:08:16,15.08838371,0.0001699,53.2171,125.7934,60.7105,299.4057,0.00023258,3.415e-05,0.0,0 STARLINK-3247,1 49747U 21115Z   22251.79740974  .00003415  00000-0  23258-3 0  9996,2 49747  53.2171 125.7934 0001699  60.7105 299.4057 15.08838371 42610,6917.885,95.438,540.9259999999998,538.575,0.0
49747.0,STARLINK-3247,PAYLOAD,2022-09-09 03:05:11,15.08839934,0.0001635,53.2179,124.3069,55.9233,304.1914,0.00024016,3.536e-05,0.0,0 STARLINK-3247,1 49747U 21115Z   22252.12860447  .00003536  00000-0  24016-3 0  9999,2 49747  53.2179 124.3069 0001635  55.9233 304.1914 15.08839934 43770,6917.880999999999,95.438,540.877,538.615,0.0
49747.0,STARLINK-3247,PAYLOAD,2022-09-09 20:34:26,15.08835055,0.0001675,53.218,121.0358,58.8877,301.2279,-3.8493e-05,-9.01e-06,0.0,0 STARLINK-3247,1 49747U 21115Z   22252.85725410 -.00000901  00000-0 -38493-4 0  9999,2 49747  53.2180 121.0358 0001675  58.8877 301.2279 15.08835055 42778,6917.896,95.438,540.919,538.602,0.0
49747.0,STARLINK-3247,PAYLOAD,2022-09-10 01:20:36,15.08831814,0.0001709,53.2177,120.1438,57.1043,303.0114,-7.5245e-05,-1.485e-05,0.0,0 STARLINK-3247,1 49747U 21115Z   22253.05597705 -.00001485  00000-0 -75245-4 0  9990,2 49747  53.2177 120.1438 0001709  57.1043 303.0114 15.08831814 43912,6917.905,95.438,540.953,538.5880000000002,0.0
49747.0,STARLINK-3247,PAYLOAD,2022-09-10 18:49:50,15.08837154,0.0001735,53.2177,116.8729,56.19,303.9257,4.2275e-05,3.85e-06,0.0,0 STARLINK-3247,1 49747U 21115Z   22253.78461192  .00000385  00000-0  42275-4 0  9993,2 49747  53.2177 116.8729 0001735  56.1900 303.9257 15.08837154 44020,6917.889,95.438,540.9540000000002,538.554,0.0
49747.0,STARLINK-3247,PAYLOAD,2022-09-10 20:25:13,15.08838421,0.0001749,53.2177,116.5755,56.3669,303.749,5.0545e-05,5.16e-06,0.0,0 STARLINK-3247,1 49747U 21115Z   22253.85085097  .00000516  00000-0  50545-4 0  9992,2 49747  53.2177 116.5755 0001749  56.3669 303.7490 15.08838421 42927,6917.885,95.438,540.96,538.54,0.0
49747.0,STARLINK-3247,PAYLOAD,2022-09-10 23:35:59,15.08842002,0.0001769,53.2176,115.9807,54.3165,305.7992,3.5425e-05,2.76e-06,0.0,0 STARLINK-3247,1 49747U 21115Z   22253.98332917  .00000276  00000-0  35425-4 0  9995,2 49747  53.2176 115.9807 0001769  54.3165 305.7992 15.08842002 42949,6917.874,95.437,540.9630000000002,538.515,0.0
49747.0,STARLINK-3247,PAYLOAD,2022-09-11 20:16:01,15.08829679,0.0001802,53.2174,112.1152,54.7635,305.3525,0.0001124,1.501e-05,0.0,0 STARLINK-3247,1 49747U 21115Z   22254.84445725  .00001501  00000-0  11240-3 0  9993,2 49747  53.2174 112.1152 0001802  54.7635 305.3525 15.08829679 43071,6917.9119999999975,95.438,541.024,538.53,0.0
49747.0,STARLINK-3247,PAYLOAD,2022-09-12 01:02:10,15.08835172,0.00018,53.2174,111.223,53.8733,306.2426,0.0001517,2.127e-05,0.0,0 STARLINK-3247,1 49747U 21115Z   22255.04317408  .00002127  00000-0  15170-3 0  9993,2 49747  53.2174 111.2230 0001800  53.8733 306.2426 15.08835172 43104,6917.895,95.438,541.005,538.515,0.0
49747.0,STARLINK-3247,PAYLOAD,2022-09-12 16:56:01,15.08835572,0.0001784,53.2173,108.2494,55.1477,304.9683,0.0001441999999999,2.007e-05,0.0,0 STARLINK-3247,1 49747U 21115Z   22255.70557655  .00002007  00000-0  14420-3 0  9990,2 49747  53.2173 108.2494 0001784  55.1477 304.9683 15.08835572 43207,6917.894,95.438,540.993,538.525,0.0
49747.0,STARLINK-3247,PAYLOAD,2022-09-13 02:28:20,15.08842298,0.0001774999999999,53.2172,106.4651,54.2408,305.8749,7.1752e-05,8.54e-06,0.0,0 STARLINK-3247,1 49747U 21115Z   22256.10301387  .00000854  00000-0  71752-4 0  9994,2 49747  53.2172 106.4651 0001775  54.2408 305.8749 15.08842298 44370,6917.873000000001,95.437,540.966,538.51,0.0
49747.0,STARLINK-3247,PAYLOAD,2022-09-13 19:57:35,15.08840062,0.0001686,53.2172,103.1935,55.3792,304.7359,5.6144e-05,6.06e-06,0.0,0 STARLINK-3247,1 49747U 21115Z   22256.83165551  .00000606  00000-0  56144-4 0  9998,2 49747  53.2172 103.1935 0001686  55.3792 304.7359 15.08840062 43379,6917.88,95.438,540.9119999999998,538.5790000000002,0.0
49747.0,STARLINK-3247,PAYLOAD,2022-09-14 07:05:17,15.08821705,0.0001908,53.2163,101.1131,54.3478,305.7691,0.00020815,3.025e-05,0.0,0 STARLINK-3247,1 49747U 21115Z   22257.29534547  .00003025  00000-0  20815-3 0  9997,2 49747  53.2163 101.1131 0001908  54.3478 305.7691 15.08821705 43443,6917.936,95.439,541.121,538.481,0.0
49747.0,STARLINK-3247,PAYLOAD,2022-09-14 16:37:36,15.08834588,0.0002,53.2162,99.329,52.7352,307.3822,2.8054000000000003e-06,-2.44e-06,0.0,0 STARLINK-3247,1 49747U 21115Z   22257.69278202 -.00000244  00000-0  28054-5 0  9990,2 49747  53.2162  99.3290 0002000  52.7352 307.3822 15.08834588 44610,6917.897,95.438,541.146,538.378,0.0
